STARLINK-32259          
1 60937U 24155P   26068.46185029 -.00000584  00000+0 -75981-5 0  9992
2 60937  53.1608 130.8932 0001183  80.5241 279.5894 15.30184006 86308
NUSHSAT1                
1 63211U 25052B   26068.64700493  .00023034  00000+0  74857-3 0  9997
2 63211  97.4095 325.7239 0005501  84.7512 275.4357 15.31903202 54882
